{"type":"FeatureCollection","features":[{"type":"Feature","properties":{},"geometry":{"coordinates":[[[-61.497634833183426,10.622356444479166],[-61.492483627287484,10.621092887930772],[-61.48841027738976,10.616148437091553],[-61.48697271742921,10.608612876728756],[-61.48433658016114,10.603194153091593],[-61.480023273280054,10.593300477770839],[-61.47642872374689,10.58694201164694],[-61.47499095994857,10.577990711233468],[-61.46924048191748,10.568568075552733],[-61.46876066208867,10.56197226688775],[-61.46612436325128,10.555140364407677],[-61.46277078529951,10.544069573332962],[-61.463248047803475,10.535114076438106],[-61.46612422437508,10.526868980568423],[-61.46924143145621,10.519573121776503],[-61.474990687107535,10.514380350679204],[-61.47331335918366,10.507077511209047],[-61.46923983403428,10.510377779981042],[-61.46229197587863,10.517921124782148],[-61.459175010971705,10.523099873098616],[-61.457018285015565,10.531110300114051],[-61.45031026102558,10.54760288118139],[-61.44815416874569,10.556083534235583],[-61.440009819225835,10.560559612808774],[-61.435212783307165,10.56385683619304],[-61.42874765712797,10.572572181734515],[-61.41988166665189,10.584113493828397],[-61.421797674140805,10.591650765970755],[-61.42611259859153,10.595653736116546],[-61.42850893583305,10.598008724837356],[-61.43378250558547,10.599655709314618],[-61.43593684397261,10.606251405387908],[-61.448345388578474,10.605944088756274],[-61.45197242887862,10.610437226872946],[-61.45906233062139,10.611355206505579],[-61.46016471941927,10.614757239260996],[-61.46094925423499,10.617394735317063],[-61.46598648877658,10.619253465582716],[-61.47149620782332,10.62189207339334],[-61.475590221476736,10.622202073793815],[-61.47669230427027,10.625758992784014],[-61.488503035436594,10.627002597326111],[-61.496212825849156,10.625131853175006],[-61.497634833183426,10.622356444479166]]],"type":"Polygon"}}]}