{"type":"FeatureCollection","features":[{"type":"Feature","properties":{},"geometry":{"coordinates":[[[4.707417722865159,9.822158167820419],[4.72420588502743,9.806312429039394],[4.725669111499315,9.779737767677602],[4.749755883369829,9.781898351286983],[4.784702533680758,9.758246140475876],[4.789072790107554,9.744599782880556],[4.815308388139556,9.733828331809505],[4.843729246816736,9.713002428077175],[4.869962219964435,9.70438543718977],[4.907123261702338,9.664088957161368],[4.973451933744997,9.69644995173347],[4.990938860883347,9.715855346893633],[5.02446819837192,9.726628415526065],[5.052924955593028,9.74385413954218],[5.101044897865194,9.740978196798991],[5.1527465976876385,9.762544827745586],[5.183345093304041,9.771884449560488],[5.204458187342311,9.771887436865299],[5.221924121992089,9.776199237104876],[5.269259865358208,9.77189373352148],[5.289636718514515,9.791282412429837],[5.323879041601941,9.813539114866373],[5.31872113545657,9.838661871603776],[5.253081407676234,9.900365208235385],[5.22687086473951,9.917587495554145],[5.202863098214777,9.953472360963161],[5.19417600584751,9.99081191361627],[5.166516985522492,9.993700475775938],[5.116957497125156,9.970010047592751],[5.079787816112372,9.98434960676802],[5.0659949839972,9.968613558946615],[4.979997394993205,9.934153727030989],[4.864844857731185,9.917673723356828],[4.812386778147214,9.904723617122386],[4.753339027610906,9.897555442337037],[4.74239840992297,9.876736275639487],[4.733676077714563,9.855187383849],[4.707417722865159,9.822158167820419]]],"type":"Polygon"}}]}