{"type":"FeatureCollection","features":[{"type":"Feature","properties":{},"geometry":{"coordinates":[[[-61.264508025216415,10.328760748708717],[-61.2647206328913,10.328384405806403],[-61.26157479713463,10.328551500384933],[-61.261362345222565,10.324411412877666],[-61.26063969634073,10.324411412092644],[-61.2606821821756,10.325498741291725],[-61.25966197200327,10.325498734991186],[-61.259704472302914,10.327422409378613],[-61.256856397077016,10.327506123663312],[-61.25664385619646,10.326000591002767],[-61.25252046937024,10.326126058834689],[-61.25273318017972,10.32796607053433],[-61.25141526405689,10.328049784129547],[-61.251287738449534,10.327589762273462],[-61.24865257481295,10.327673292598973],[-61.24865257686467,10.32721328727824],[-61.247717363641456,10.327171480251437],[-61.247887408701686,10.329262409426377],[-61.247207316036906,10.32909512576093],[-61.24720726912244,10.327296937853703],[-61.24550706889937,10.327296918961537],[-61.2452518513972,10.321316767459166],[-61.24376400927494,10.320898550317551],[-61.24350916299109,10.323407764744942],[-61.23755774944321,10.323031361001526],[-61.237515363796575,10.324704158396742],[-61.23564443195981,10.324871440351174],[-61.23572922960868,10.326711560566054],[-61.23704734698258,10.326836991270369],[-61.237090292514324,10.330015198664455],[-61.23883295730501,10.330140697563337],[-61.23874797258529,10.331729811106612],[-61.23981071491441,10.331938890779824],[-61.23993810969371,10.331060738170208],[-61.241553322762115,10.33177170528873],[-61.24163826724788,10.332148110192364],[-61.24520962357839,10.333025943644216],[-61.24554914319141,10.334071750764707],[-61.24941745770715,10.33444808322001],[-61.24954524535572,10.335827790802568],[-61.25362595648183,10.336371371059684],[-61.25366843930345,10.334656906872553],[-61.25532614610732,10.334782564804826],[-61.25532613156241,10.336538981532087],[-61.25668633971928,10.336455630243336],[-61.25694142167089,10.337375493123488],[-61.258046652858994,10.337459076325075],[-61.25817418338637,10.337793546029872],[-61.26025708154786,10.337709821668795],[-61.26042714672015,10.333695474715967],[-61.26110730080282,10.333653698380402],[-61.26144731203151,10.332398911264875],[-61.2619149117227,10.332189843624391],[-61.26199988715065,10.328969708334483],[-61.264508025216415,10.328760748708717]]],"type":"Polygon"}}]}