{"type":"FeatureCollection","features":[{"type":"Feature","properties":{},"geometry":{"coordinates":[[[10.243142037479458,9.972888843430013],[10.21373019474595,9.956054228773894],[10.189092392840536,9.936409624635857],[10.204233538583622,9.889674314204598],[10.209895726719566,9.857877120579602],[10.23457912263251,9.82233287159734],[10.223093206993752,9.780177656941675],[10.2525487925746,9.761462477077202],[10.240132867345693,9.735181238865877],[10.305699391170577,9.712689216951972],[10.418804191975084,9.648933357234426],[10.39123528460118,9.622726359193393],[10.395987043542618,9.553385233127258],[10.420701317117391,9.547738355862677],[10.461601783451385,9.56168802223452],[10.463496687054004,9.586088657328375],[10.490140610392615,9.576652403939136],[10.527225295650567,9.572906606528633],[10.552895917836253,9.560724838307408],[10.609868112256919,9.59270679731273],[10.643064702920555,9.639633554377212],[10.688385078158888,9.717538162317837],[10.750334124126482,9.702453528690341],[10.801695868093418,9.765171878934453],[10.794914063454854,9.83821394775947],[10.80718902502133,9.87096926178748],[10.836491049047709,9.890612810978283],[10.83554267458922,9.915864801719337],[10.865805002750221,9.935489636781867],[10.866748283249592,9.954186930374377],[10.860092271346446,9.972881493293102],[10.843094713178516,9.989728492949112],[10.852578660513188,10.028055149000977],[10.905532986019296,10.037340177898628],[10.927386430941937,10.028938246423806],[10.939614752883188,10.057870716595517],[10.9322818875238,10.084123842586408],[10.931583276044734,10.106656787596009],[10.904053482860064,10.116010674133662],[10.858594523127636,10.118878804295605],[10.838694108021201,10.120774617961516],[10.82635851809772,10.11797683309915],[10.805514604248259,10.121750900520752],[10.81959195154269,10.06928759246479],[10.800574271421254,10.019711891977579],[10.739055670452132,10.041321073321114],[10.74756109709881,10.022586221876324],[10.75891556143435,10.001048495277843],[10.776902793829095,9.962670554054583],[10.751346538183242,9.963627556812938],[10.69922580709553,9.972091536693569],[10.661255244562994,9.980537050563242],[10.541382711223548,10.024473833780121],[10.531864701737192,10.044108670911385],[10.504309135306102,10.045981162623917],[10.492897928359099,10.058130713360441],[10.502395054397823,10.07309201481246],[10.483381938688808,10.096454961541994],[10.474829228562953,10.103931201037696],[10.458681131285061,10.087101014626029],[10.438725620403318,10.104851307143193],[10.440631086894228,10.08055462031568],[10.456788269195698,10.05905659439344],[10.442555381107127,10.034778953715673],[10.338987656558004,10.01878339028265],[10.301952490332184,10.01689930514263],[10.294374511603849,9.988814732082858],[10.272516249047186,10.005670160048268],[10.255427453150674,9.996312595349451],[10.243142037479458,9.972888843430013]]],"type":"Polygon"}}]}